OBJECT_NAME,OBJECT_ID,EPOCH,MEAN_MOTION,ECCENTRICITY,INCLINATION,RA_OF_ASC_NODE,ARG_OF_PERICENTER,MEAN_ANOMALY,EPHEMERIS_TYPE,CLASSIFICATION_TYPE,NORAD_CAT_ID,ELEMENT_SET_NO,REV_AT_EPOCH,BSTAR,MEAN_MOTION_DOT,MEAN_MOTION_DDOT
BEIDOU-2 IGSO-5 (C10),2011-073A,2026-06-11T18:48:44.241696,1.00273931,.01137377,47.6891,271.6140,221.6119,140.8375,0,U,37948,999,5308,0,-.166E-5,0
LUCH 5A (SDCM/PRN 140),2011-074B,2026-06-11T13:37:38.544672,1.00269761,.00022044,8.7390,73.8897,21.4767,175.9303,0,U,37951,999,5299,0,-.38E-6,0
BEIDOU-2 G5 (C05),2012-008A,2026-06-11T22:40:05.974176,1.00270686,.00091873,3.5593,69.7320,274.3082,314.9295,0,U,38091,999,5231,0,.71E-6,0
BEIDOU-2 M3 (C11),2012-018A,2026-06-11T19:39:29.281824,1.86230072,.00199864,55.7630,305.0567,274.4374,85.3173,0,U,38250,999,9584,0,-.67E-6,0
BEIDOU-2 M4 (C12),2012-018B,2026-06-11T05:08:46.250880,1.86229738,.0011155,55.6637,304.2915,276.7325,83.1254,0,U,38251,999,9583,0,-.65E-6,0
SES-5 (EGNOS/PRN 136),2012-036A,2026-06-11T21:49:22.510848,1.00272734,.00018195,0.0480,313.1662,127.5342,151.8717,0,U,38652,999,4440,0,.5E-6,0
BEIDOU-2 M6 (C14),2012-050B,2026-06-10T22:10:50.283840,1.86230876,.00138013,56.5389,63.1015,356.5359,3.4771,0,U,38775,999,9319,0,-.53E-6,0
GSAT-10 (GAGAN/PRN 128),2012-051B,2026-06-11T11:55:49.330272,1.00269530,.0007747,0.0170,344.7003,106.3247,70.7939,0,U,38779,999,5004,0,0,0
GPS BIIF-3  (PRN 24),2012-053A,2026-06-11T08:00:08.402112,2.00567339,.0179946,53.5848,143.8391,65.6739,296.1889,0,U,38833,999,9932,0,.92E-6,0
GSAT0103 (GALILEO-FM3),2012-055A,2026-06-11T00:33:20.070144,1.70473353,.0004991,55.8029,101.7147,304.7651,55.1525,0,U,38857,999,8490,0,.14E-6,0
BEIDOU-2 G6 (C02),2012-059A,2026-06-11T22:27:17.243136,1.00273293,.00098101,4.4067,73.5814,324.8626,282.6734,0,U,38953,999,4985,0,-.162E-5,0
LUCH 5B (SDCM/PRN 125),2012-061A,2026-06-10T23:28:44.789088,1.00273172,.00019402,10.4672,49.9410,141.4195,43.8723,0,U,38977,999,4954,0,-.127E-5,0
COSMOS 2485 (747),2013-019A,2026-06-11T06:41:34.139040,2.13103450,.0023362,65.4165,73.8029,234.5519,125.2462,0,U,39155,999,10215,0,-.29E-6,0
GPS BIIF-4  (PRN 27),2013-023A,2026-06-11T04:48:17.540064,2.00563436,.0141566,54.5089,269.2176,51.0220,310.2468,0,U,39166,999,9576,0,-.3E-6,0
IRNSS-1A,2013-034A,2026-05-22T20:37:38.469792,1.00280263,.00166187,35.6649,64.2334,185.3754,355.4646,0,U,39199,999,4711,0,.59E-6,0
GPS BIIF-5  (PRN 30),2014-008A,2026-06-11T16:48:34.832160,2.00559396,.00842358,53.6538,149.5435,231.1914,128.0563,0,U,39533,999,8957,0,.97E-6,0
ASTRA 5B (EGNOS/PRN 123),2014-011B,2026-06-11T22:46:09.318144,1.00271216,.00018718,0.0506,326.6924,102.4908,196.1319,0,U,39617,999,4461,0,.153E-5,0
COSMOS 2492 (754),2014-012A,2026-06-09T08:39:27.110016,2.13103521,.00104861,65.3026,314.2024,325.9791,33.9512,0,U,39620,999,9507,0,-.33E-6,0
IRNSS-1B,2014-017A,2026-06-11T18:38:36.998304,1.00274648,.0022984,28.9310,240.4964,189.7011,164.6562,0,U,39635,999,4473,0,.129E-5,0
LUCH 5V (SDCM/PRN 141),2014-023A,2026-06-12T03:23:00.932064,1.00275515,.0001807,5.1193,69.7934,43.2841,292.7888,0,U,39727,999,4430,0,-.256E-5,0
GPS BIIF-6  (PRN 06),2014-026A,2026-06-10T23:29:17.076768,2.00561348,.0038214,56.5015,331.7592,326.6633,33.1027,0,U,39741,999,8841,0,-.62E-6,0
COSMOS 2500 (755),2014-032A,2026-06-11T21:02:39.312960,2.13106089,.00071573,65.2360,313.8645,183.6705,176.3150,0,U,40001,999,9334,0,-.45E-6,0
GPS BIIF-7  (PRN 09),2014-045A,2026-06-11T01:41:19.002048,2.00557949,.0033049,55.3493,88.7087,118.3165,242.0048,0,U,40105,999,8595,0,-.16E-6,0
GSAT0201 (GALILEO 5),2014-050A,2026-06-10T22:46:42.297888,1.85519989,.16736333,48.8825,273.6924,179.1491,181.2193,0,U,40128,999,7820,0,-.52E-6,0
GSAT0202 (GALILEO 6),2014-050B,2026-06-09T14:06:18.101664,1.85520607,.16746766,48.9007,272.8335,179.8278,180.2807,0,U,40129,999,8034,0,-.52E-6,0
IRNSS-1C,2014-061A,2026-06-11T20:59:50.455392,1.00270171,.00227015,6.5049,89.0305,1.8136,207.3354,0,U,40269,999,4263,0,-.148E-5,0
GPS BIIF-8  (PRN 03),2014-068A,2026-06-11T10:32:39.727680,2.00575743,.00669292,56.9837,31.1762,70.3719,290.4050,0,U,40294,999,8509,0,-.62E-6,0
COSMOS 2501 (702K),2014-075A,2026-06-11T04:48:31.142880,2.13101483,.0022542,63.6159,190.5792,212.2512,147.6843,0,U,40315,999,8972,0,.121E-5,0
GPS BIIF-9  (PRN 26),2015-013A,2026-06-11T01:54:03.776832,2.00551724,.01093756,53.1684,204.4303,40.0978,320.7887,0,U,40534,999,8170,0,.94E-6,0
GSAT0203 (GALILEO 7),2015-017A,2026-06-11T08:19:41.682144,1.70476009,.00020918,56.7895,341.7548,278.1581,81.8319,0,U,40544,999,6910,0,-.66E-6,0
GSAT0204 (GALILEO 8),2015-017B,2026-06-11T14:28:00.634368,1.70475611,.00018922,56.7979,341.7663,248.9862,111.0068,0,U,40545,999,3215,0,-.67E-6,0
